[
  {
    "OBJECT_NAME": "STARLINK-2571",
    "OBJECT_ID": "21038BA",
    "EPOCH": "2025-11-11T06:50:59.059392",
    "MEAN_MOTION": 15.06399076,
    "ECCENTRICITY": 0.000161,
    "INCLINATION": 53.0545,
    "RA_OF_ASC_NODE": 153.1645,
    "ARG_OF_PERICENTER": 90.327,
    "MEAN_ANOMALY": 269.7904,
    "EPHEMERIS_TYPE": 0,
    "CLASSIFICATION_TYPE": "U",
    "NORAD_CAT_ID": 48401,
    "ELEMENT_SET_NO": 999,
    "REV_AT_EPOCH": 24945,
    "BSTAR": 0.00011136,
    "MEAN_MOTION_DOT": 1.378e-05,
    "MEAN_MOTION_DDOT": 0.0,
    "TLE_LINE1": "1 48401U 21038BA  25315.28540578  .00001378  00000+0  11136-3 0  9999",
    "TLE_LINE2": "2 48401  53.0545 153.1645 0001610  90.3270 269.7904 15.06399076249452",
    "COMMENT": "Grouped by shell and plane from TLE"
  },
  {
    "OBJECT_NAME": "STARLINK-2593",
    "OBJECT_ID": "21038BD",
    "EPOCH": "2025-11-10T23:19:49.747584",
    "MEAN_MOTION": 15.06398468,
    "ECCENTRICITY": 0.0001455,
    "INCLINATION": 53.0516,
    "RA_OF_ASC_NODE": 154.562,
    "ARG_OF_PERICENTER": 93.5033,
    "MEAN_ANOMALY": 266.6123,
    "EPHEMERIS_TYPE": 0,
    "CLASSIFICATION_TYPE": "U",
    "NORAD_CAT_ID": 48404,
    "ELEMENT_SET_NO": 999,
    "REV_AT_EPOCH": 24941,
    "BSTAR": 0.00019352,
    "MEAN_MOTION_DOT": 2.602e-05,
    "MEAN_MOTION_DDOT": 0.0,
    "TLE_LINE1": "1 48404U 21038BD  25314.97210356  .00002602  00000+0  19352-3 0  9994",
    "TLE_LINE2": "2 48404  53.0516 154.5620 0001455  93.5033 266.6123 15.06398468249419",
    "COMMENT": "Grouped by shell and plane from TLE"
  },
  {
    "OBJECT_NAME": "STARLINK-2570",
    "OBJECT_ID": "21038BE",
    "EPOCH": "2025-11-10T23:14:31.094880",
    "MEAN_MOTION": 15.06411889,
    "ECCENTRICITY": 0.0001886,
    "INCLINATION": 53.0512,
    "RA_OF_ASC_NODE": 154.5758,
    "ARG_OF_PERICENTER": 85.7424,
    "MEAN_ANOMALY": 274.3781,
    "EPHEMERIS_TYPE": 0,
    "CLASSIFICATION_TYPE": "U",
    "NORAD_CAT_ID": 48405,
    "ELEMENT_SET_NO": 999,
    "REV_AT_EPOCH": 24941,
    "BSTAR": 0.00049352,
    "MEAN_MOTION_DOT": 7.079e-05,
    "MEAN_MOTION_DDOT": 0.0,
    "TLE_LINE1": "1 48405U 21038BE  25314.96841545  .00007079  00000+0  49352-3 0  9990",
    "TLE_LINE2": "2 48405  53.0512 154.5758 0001886  85.7424 274.3781 15.06411889249412",
    "COMMENT": "Grouped by shell and plane from TLE"
  },
  {
    "OBJECT_NAME": "STARLINK-2568",
    "OBJECT_ID": "21038BF",
    "EPOCH": "2025-11-10T23:09:12.296160",
    "MEAN_MOTION": 15.06392378,
    "ECCENTRICITY": 0.0001546,
    "INCLINATION": 53.0524,
    "RA_OF_ASC_NODE": 154.5954,
    "ARG_OF_PERICENTER": 93.1673,
    "MEAN_ANOMALY": 266.9493,
    "EPHEMERIS_TYPE": 0,
    "CLASSIFICATION_TYPE": "U",
    "NORAD_CAT_ID": 48406,
    "ELEMENT_SET_NO": 999,
    "REV_AT_EPOCH": 24941,
    "BSTAR": 0.0,
    "MEAN_MOTION_DOT": -2.707e-05,
    "MEAN_MOTION_DDOT": 0.0,
    "TLE_LINE1": "1 48406U 21038BF  25314.96472565 -.00002707  00000+0 -16292-3 0  9995",
    "TLE_LINE2": "2 48406  53.0524 154.5954 0001546  93.1673 266.9493 15.06392378249414",
    "COMMENT": "Grouped by shell and plane from TLE"
  },
  {
    "OBJECT_NAME": "STARLINK-2592",
    "OBJECT_ID": "21038BH",
    "EPOCH": "2025-11-10T22:58:35.554944",
    "MEAN_MOTION": 15.06401791,
    "ECCENTRICITY": 0.0001592,
    "INCLINATION": 53.0528,
    "RA_OF_ASC_NODE": 154.6253,
    "ARG_OF_PERICENTER": 85.7024,
    "MEAN_ANOMALY": 274.4147,
    "EPHEMERIS_TYPE": 0,
    "CLASSIFICATION_TYPE": "U",
    "NORAD_CAT_ID": 48408,
    "ELEMENT_SET_NO": 999,
    "REV_AT_EPOCH": 24940,
    "BSTAR": 0.00012769,
    "MEAN_MOTION_DOT": 1.621e-05,
    "MEAN_MOTION_DDOT": 0.0,
    "TLE_LINE1": "1 48408U 21038BH  25314.95735596  .00001621  00000+0  12769-3 0  9999",
    "TLE_LINE2": "2 48408  53.0528 154.6253 0001592  85.7024 274.4147 15.06401791249400",
    "COMMENT": "Grouped by shell and plane from TLE"
  },
  {
    "OBJECT_NAME": "STARLINK-3622",
    "OBJECT_ID": "22017A",
    "EPOCH": "2025-11-10T23:38:14.160768",
    "MEAN_MOTION": 15.08841101,
    "ECCENTRICITY": 0.0001863,
    "INCLINATION": 53.2149,
    "RA_OF_ASC_NODE": 152.0065,
    "ARG_OF_PERICENTER": 89.522,
    "MEAN_ANOMALY": 270.5986,
    "EPHEMERIS_TYPE": 0,
    "CLASSIFICATION_TYPE": "U",
    "NORAD_CAT_ID": 51768,
    "ELEMENT_SET_NO": 999,
    "REV_AT_EPOCH": 20612,
    "BSTAR": 6.6492e-05,
    "MEAN_MOTION_DOT": 7.7e-06,
    "MEAN_MOTION_DDOT": 0.0,
    "TLE_LINE1": "1 51768U 22017A   25314.98488612  .00000770  00000+0  66492-4 0  9994",
    "TLE_LINE2": "2 51768  53.2149 152.0065 0001863  89.5220 270.5986 15.08841101206123",
    "COMMENT": "Grouped by shell and plane from TLE"
  },
  {
    "OBJECT_NAME": "STARLINK-3621",
    "OBJECT_ID": "22017B",
    "EPOCH": "2025-11-11T05:49:10.141536",
    "MEAN_MOTION": 15.08846186,
    "ECCENTRICITY": 0.0001167,
    "INCLINATION": 53.2147,
    "RA_OF_ASC_NODE": 150.8516,
    "ARG_OF_PERICENTER": 92.767,
    "MEAN_ANOMALY": 267.3455,
    "EPHEMERIS_TYPE": 0,
    "CLASSIFICATION_TYPE": "U",
    "NORAD_CAT_ID": 51769,
    "ELEMENT_SET_NO": 999,
    "REV_AT_EPOCH": 20472,
    "BSTAR": 0.00020748,
    "MEAN_MOTION_DOT": 3.016e-05,
    "MEAN_MOTION_DDOT": 0.0,
    "TLE_LINE1": "1 51769U 22017B   25315.24247849  .00003016  00000+0  20748-3 0  9999",
    "TLE_LINE2": "2 51769  53.2147 150.8516 0001167  92.7670 267.3455 15.08846186204728",
    "COMMENT": "Grouped by shell and plane from TLE"
  },
  {
    "OBJECT_NAME": "STARLINK-3612",
    "OBJECT_ID": "22017C",
    "EPOCH": "2025-11-11T05:54:28.434816",
    "MEAN_MOTION": 15.08855718,
    "ECCENTRICITY": 0.00014,
    "INCLINATION": 53.2163,
    "RA_OF_ASC_NODE": 150.8344,
    "ARG_OF_PERICENTER": 94.615,
    "MEAN_ANOMALY": 265.5003,
    "EPHEMERIS_TYPE": 0,
    "CLASSIFICATION_TYPE": "U",
    "NORAD_CAT_ID": 51770,
    "ELEMENT_SET_NO": 999,
    "REV_AT_EPOCH": 20473,
    "BSTAR": 0.00018787,
    "MEAN_MOTION_DOT": 2.705e-05,
    "MEAN_MOTION_DDOT": 0.0,
    "TLE_LINE1": "1 51770U 22017C   25315.24616244  .00002705  00000+0  18787-3 0  9994",
    "TLE_LINE2": "2 51770  53.2163 150.8344 0001400  94.6150 265.5003 15.08855718204732",
    "COMMENT": "Grouped by shell and plane from TLE"
  },
  {
    "OBJECT_NAME": "STARLINK-3614",
    "OBJECT_ID": "22017D",
    "EPOCH": "2025-11-10T21:46:56.440416",
    "MEAN_MOTION": 15.0884236,
    "ECCENTRICITY": 0.0001561,
    "INCLINATION": 53.2152,
    "RA_OF_ASC_NODE": 152.3437,
    "ARG_OF_PERICENTER": 87.5721,
    "MEAN_ANOMALY": 272.545,
    "EPHEMERIS_TYPE": 0,
    "CLASSIFICATION_TYPE": "U",
    "NORAD_CAT_ID": 51771,
    "ELEMENT_SET_NO": 999,
    "REV_AT_EPOCH": 20467,
    "BSTAR": 4.3278e-05,
    "MEAN_MOTION_DOT": 4.01e-06,
    "MEAN_MOTION_DDOT": 0.0,
    "TLE_LINE1": "1 51771U 22017D   25314.90759769  .00000401  00000+0  43278-4 0  9992",
    "TLE_LINE2": "2 51771  53.2152 152.3437 0001561  87.5721 272.5450 15.08842360204670",
    "COMMENT": "Grouped by shell and plane from TLE"
  },
  {
    "OBJECT_NAME": "STARLINK-3623",
    "OBJECT_ID": "22017E",
    "EPOCH": "2025-11-10T23:11:43.579968",
    "MEAN_MOTION": 15.08841507,
    "ECCENTRICITY": 0.0001527,
    "INCLINATION": 53.2153,
    "RA_OF_ASC_NODE": 152.0903,
    "ARG_OF_PERICENTER": 90.8177,
    "MEAN_ANOMALY": 269.299,
    "EPHEMERIS_TYPE": 0,
    "CLASSIFICATION_TYPE": "U",
    "NORAD_CAT_ID": 51772,
    "ELEMENT_SET_NO": 999,
    "REV_AT_EPOCH": 20467,
    "BSTAR": 2.9669000000000003e-05,
    "MEAN_MOTION_DOT": 1.84e-06,
    "MEAN_MOTION_DDOT": 0.0,
    "TLE_LINE1": "1 51772U 22017E   25314.96647662  .00000184  00000+0  29669-4 0  9993",
    "TLE_LINE2": "2 51772  53.2153 152.0903 0001527  90.8177 269.2990 15.08841507204675",
    "COMMENT": "Grouped by shell and plane from TLE"
  },
  {
    "OBJECT_NAME": "STARLINK-3624",
    "OBJECT_ID": "22017F",
    "EPOCH": "2025-11-10T23:18:24.466464",
    "MEAN_MOTION": 15.08837253,
    "ECCENTRICITY": 0.0001451,
    "INCLINATION": 53.214,
    "RA_OF_ASC_NODE": 152.0415,
    "ARG_OF_PERICENTER": 96.6438,
    "MEAN_ANOMALY": 263.472,
    "EPHEMERIS_TYPE": 0,
    "CLASSIFICATION_TYPE": "U",
    "NORAD_CAT_ID": 51773,
    "ELEMENT_SET_NO": 999,
    "REV_AT_EPOCH": 20468,
    "BSTAR": 0.00031069,
    "MEAN_MOTION_DOT": 4.66e-05,
    "MEAN_MOTION_DDOT": 0.0,
    "TLE_LINE1": "1 51773U 22017F   25314.97111651  .00004660  00000+0  31069-3 0  9998",
    "TLE_LINE2": "2 51773  53.2140 152.0415 0001451  96.6438 263.4720 15.08837253204681",
    "COMMENT": "Grouped by shell and plane from TLE"
  },
  {
    "OBJECT_NAME": "STARLINK-3629",
    "OBJECT_ID": "22017G",
    "EPOCH": "2025-11-10T23:01:08.991840",
    "MEAN_MOTION": 15.08837838,
    "ECCENTRICITY": 0.0001507,
    "INCLINATION": 53.216,
    "RA_OF_ASC_NODE": 152.1249,
    "ARG_OF_PERICENTER": 89.205,
    "MEAN_ANOMALY": 270.9115,
    "EPHEMERIS_TYPE": 0,
    "CLASSIFICATION_TYPE": "U",
    "NORAD_CAT_ID": 51774,
    "ELEMENT_SET_NO": 999,
    "REV_AT_EPOCH": 20464,
    "BSTAR": 0.0001493,
    "MEAN_MOTION_DOT": 2.089e-05,
    "MEAN_MOTION_DDOT": 0.0,
    "TLE_LINE1": "1 51774U 22017G   25314.95913185  .00002089  00000+0  14930-3 0  9990",
    "TLE_LINE2": "2 51774  53.2160 152.1249 0001507  89.2050 270.9115 15.08837838204646",
    "COMMENT": "Grouped by shell and plane from TLE"
  },
  {
    "OBJECT_NAME": "STARLINK-3620",
    "OBJECT_ID": "22017H",
    "EPOCH": "2025-11-10T20:06:14.747616",
    "MEAN_MOTION": 15.0884455,
    "ECCENTRICITY": 0.000144,
    "INCLINATION": 53.2149,
    "RA_OF_ASC_NODE": 152.6683,
    "ARG_OF_PERICENTER": 86.8359,
    "MEAN_ANOMALY": 273.2798,
    "EPHEMERIS_TYPE": 0,
    "CLASSIFICATION_TYPE": "U",
    "NORAD_CAT_ID": 51775,
    "ELEMENT_SET_NO": 999,
    "REV_AT_EPOCH": 20466,
    "BSTAR": 5.9760000000000004e-05,
    "MEAN_MOTION_DOT": 6.63e-06,
    "MEAN_MOTION_DDOT": 0.0,
    "TLE_LINE1": "1 51775U 22017H   25314.83767069  .00000663  00000+0  59760-4 0  9993",
    "TLE_LINE2": "2 51775  53.2149 152.6683 0001440  86.8359 273.2798 15.08844550204666",
    "COMMENT": "Grouped by shell and plane from TLE"
  }
]